{
  "norad_id": 68509,
  "name": "STARLINK-36292",
  "history": [
    {
      "epoch": "2026-04-07T05:59:14.496576Z",
      "apogee_km": 301.8581676146041,
      "perigee_km": 299.75430049587703,
      "latitude_deg": 9.085715881209764e-06,
      "longitude_deg": 80.93882546170929,
      "height_km": 300.89094319531733,
      "semi_major_axis_km": 6678.94323405524,
      "eccentricity": 0.0001575,
      "inclination_deg": 53.1611,
      "raan_deg": 6.2783,
      "arg_perigee_deg": 37.252,
      "mean_anomaly_deg": 322.8616,
      "mean_motion_rev_day": 15.90527321
    },
    {
      "epoch": "2026-04-09T20:00:01.999008Z",
      "apogee_km": 328.98993467790024,
      "perigee_km": 326.8560663857306,
      "latitude_deg": -4.211905900119058,
      "longitude_deg": -147.98577304473557,
      "height_km": 329.5107780269025,
      "semi_major_axis_km": 6706.060000531815,
      "eccentricity": 0.0001591,
      "inclination_deg": 53.1608,
      "raan_deg": 353.2433,
      "arg_perigee_deg": 86.2485,
      "mean_anomaly_deg": 268.639,
      "mean_motion_rev_day": 15.80889845
    },
    {
      "epoch": "2026-04-10T05:07:33.110688Z",
      "apogee_km": 328.4284084247629,
      "perigee_km": 326.26910790091824,
      "latitude_deg": -1.1359353847289122e-05,
      "longitude_deg": 75.999288181566,
      "height_km": 328.0691030287066,
      "semi_major_axis_km": 6705.48575816284,
      "eccentricity": 0.00016101,
      "inclination_deg": 53.1605,
      "raan_deg": 351.3379,
      "arg_perigee_deg": 79.4807,
      "mean_anomaly_deg": 280.6397,
      "mean_motion_rev_day": 15.81092925
    }
  ]
}